start=new Date('2022-01-18T00:00:00.000Z').valueOf();
sats=[{"ECCENTRICITY":"0.00017400","RA_OF_ASC_NODE":"349.5653","ARG_OF_PERICENTER":"52.6163","CENTER_NAME":"EARTH","TIME_SYSTEM":"UTC","FILE":"3276075","MEAN_MOTION":"15.06376696","NORAD_CAT_ID":"47557","EPOCH":"2022-01-17T14:56:27.648672","DECAY_DATE":null,"PERIAPSIS":"546.080","BSTAR":"-0.00023624000000","SEMIMAJOR_AXIS":"6925.420","OBJECT_TYPE":"PAYLOAD","REV_AT_EPOCH":"5261","TLE_LINE1":"1 47557U 21009K   22017.62254223 -.00003796  00000-0 -23624-3 0  9995","LAUNCH_DATE":"2021-02-04","EPHEMERIS_TYPE":"0","MEAN_ELEMENT_THEORY":"SGP4","OBJECT_ID":"2021-009K","MEAN_MOTION_DDOT":"0.0000000000000","MEAN_MOTION_DOT":"-0.00003796","SITE":"AFETR","PERIOD":"95.594","ELEMENT_SET_NO":"999","INCLINATION":"53.0552","TLE_LINE2":"2 47557  53.0552 349.5653 0001740  52.6163 307.4985 15.06376696 52619","GP_ID":"194087257","APOAPSIS":"548.490","RCS_SIZE":"LARGE","MEAN_ANOMALY":"307.4985","CLASSIFICATION_TYPE":"U","REF_FRAME":"TEME","OBJECT_NAME":"STARLINK-1956","COUNTRY_CODE":"US"},{"FILE":"3275938","MEAN_MOTION":"15.06374507","TIME_SYSTEM":"UTC","ECCENTRICITY":"0.00016020","ARG_OF_PERICENTER":"55.7262","RA_OF_ASC_NODE":"319.9317","CENTER_NAME":"EARTH","BSTAR":"-0.00016617000000","SEMIMAJOR_AXIS":"6925.427","OBJECT_TYPE":"PAYLOAD","PERIAPSIS":"546.182","DECAY_DATE":null,"EPOCH":"2022-01-17T12:53:03.071904","NORAD_CAT_ID":"47558","TLE_LINE2":"2 47558  53.0574 319.9317 0001602  55.7262 304.3878 15.06374507 53610","GP_ID":"194063837","SITE":"AFETR","ELEMENT_SET_NO":"999","PERIOD":"95.594","INCLINATION":"53.0574","LAUNCH_DATE":"2021-02-04","EPHEMERIS_TYPE":"0","MEAN_ELEMENT_THEORY":"SGP4","OBJECT_ID":"2021-009L","MEAN_MOTION_DDOT":"0.0000000000000","MEAN_MOTION_DOT":"-0.00002754","REV_AT_EPOCH":"5361","TLE_LINE1":"1 47558U 21009L   22017.53684111 -.00002754  00000-0 -16617-3 0  9996","COUNTRY_CODE":"US","OBJECT_NAME":"STARLINK-1957","MEAN_ANOMALY":"304.3878","RCS_SIZE":"LARGE","CLASSIFICATION_TYPE":"U","REF_FRAME":"TEME","APOAPSIS":"548.401"},{"SITE":"AFETR","INCLINATION":"53.0555","PERIOD":"95.594","ELEMENT_SET_NO":"999","TLE_LINE2":"2 47559  53.0555 308.6110 0001769  59.0752 301.0410 15.06375070 53208","GP_ID":"194088759","TLE_LINE1":"1 47559U 21009M   22017.83264004 -.00003688  00000-0 -22896-3 0  9998","REV_AT_EPOCH":"5320","LAUNCH_DATE":"2021-02-04","EPHEMERIS_TYPE":"0","MEAN_ELEMENT_THEORY":"SGP4","OBJECT_ID":"2021-009M","MEAN_MOTION_DDOT":"0.0000000000000","MEAN_MOTION_DOT":"-0.00003688","OBJECT_NAME":"STARLINK-1958","COUNTRY_CODE":"US","APOAPSIS":"548.515","MEAN_ANOMALY":"301.0410","RCS_SIZE":"LARGE","CLASSIFICATION_TYPE":"U","REF_FRAME":"TEME","TIME_SYSTEM":"UTC","FILE":"3276075","MEAN_MOTION":"15.06375070","ECCENTRICITY":"0.00017690","ARG_OF_PERICENTER":"59.0752","RA_OF_ASC_NODE":"308.6110","CENTER_NAME":"EARTH","PERIAPSIS":"546.065","BSTAR":"-0.00022896000000","SEMIMAJOR_AXIS":"6925.425","OBJECT_TYPE":"PAYLOAD","NORAD_CAT_ID":"47559","EPOCH":"2022-01-17T19:59:00.099456","DECAY_DATE":null},{"BSTAR":"-0.00026041000000","OBJECT_TYPE":"PAYLOAD","SEMIMAJOR_AXIS":"6925.379","PERIAPSIS":"546.090","DECAY_DATE":null,"EPOCH":"2022-01-17T05:28:29.818560","NORAD_CAT_ID":"47560","FILE":"3275754","MEAN_MOTION":"15.06390209","TIME_SYSTEM":"UTC","ECCENTRICITY":"0.00016660","CENTER_NAME":"EARTH","ARG_OF_PERICENTER":"66.7350","RA_OF_ASC_NODE":"311.3335","COUNTRY_CODE":"US","OBJECT_NAME":"STARLINK-1959","CLASSIFICATION_TYPE":"U","MEAN_ANOMALY":"293.3815","RCS_SIZE":"LARGE","REF_FRAME":"TEME","APOAPSIS":"548.397","GP_ID":"194056655","TLE_LINE2":"2 47560  53.0552 311.3335 0001666  66.7350 293.3815 15.06390209 53115","SITE":"AFETR","PERIOD":"95.593","ELEMENT_SET_NO":"999","INCLINATION":"53.0552","OBJECT_ID":"2021-009N","EPHEMERIS_TYPE":"0","LAUNCH_DATE":"2021-02-04","MEAN_ELEMENT_THEORY":"SGP4","MEAN_MOTION_DOT":"-0.00004157","MEAN_MOTION_DDOT":"0.0000000000000","TLE_LINE1":"1 47560U 21009N   22017.22812290 -.00004157  00000-0 -26041-3 0  9997","REV_AT_EPOCH":"5311"},{"ELEMENT_SET_NO":"999","PERIOD":"95.593","INCLINATION":"53.0550","SITE":"AFETR","GP_ID":"194056907","TLE_LINE2":"2 47561  53.0550 330.7968 0001447 192.2208 167.8746 15.06383365 52858","TLE_LINE1":"1 47561U 21009P   22017.34791497 -.00005703  00000-0 -36445-3 0  9993","REV_AT_EPOCH":"5285","MEAN_MOTION_DOT":"-0.00005703","MEAN_MOTION_DDOT":"0.0000000000000","OBJECT_ID":"2021-009P","LAUNCH_DATE":"2021-02-04","EPHEMERIS_TYPE":"0","MEAN_ELEMENT_THEORY":"SGP4","OBJECT_NAME":"STARLINK-1960","COUNTRY_CODE":"US","APOAPSIS":"548.267","REF_FRAME":"TEME","CLASSIFICATION_TYPE":"U","MEAN_ANOMALY":"167.8746","RCS_SIZE":"LARGE","TIME_SYSTEM":"UTC","MEAN_MOTION":"15.06383365","FILE":"3275754","CENTER_NAME":"EARTH","RA_OF_ASC_NODE":"330.7968","ARG_OF_PERICENTER":"192.2208","ECCENTRICITY":"0.00014470","PERIAPSIS":"546.262","OBJECT_TYPE":"PAYLOAD","SEMIMAJOR_AXIS":"6925.400","BSTAR":"-0.00036445000000","NORAD_CAT_ID":"47561","EPOCH":"2022-01-17T08:20:59.853408","DECAY_DATE":null},{"MEAN_MOTION_DOT":"-0.00005967","MEAN_MOTION_DDOT":"0.0000000000000","OBJECT_ID":"2021-009Q","EPHEMERIS_TYPE":"0","LAUNCH_DATE":"2021-02-04","MEAN_ELEMENT_THEORY":"SGP4","REV_AT_EPOCH":"5288","TLE_LINE1":"1 47562U 21009Q   22017.56170225 -.00005967  00000-0 -38220-3 0  9993","GP_ID":"194057657","TLE_LINE2":"2 47562  53.0549 329.8353 0001719  62.7310 297.3853 15.06382850 52880","ELEMENT_SET_NO":"999","PERIOD":"95.593","INCLINATION":"53.0549","SITE":"AFETR","REF_FRAME":"TEME","CLASSIFICATION_TYPE":"U","RCS_SIZE":"LARGE","MEAN_ANOMALY":"297.3853","APOAPSIS":"548.457","COUNTRY_CODE":"US","OBJECT_NAME":"STARLINK-1961","CENTER_NAME":"EARTH","ARG_OF_PERICENTER":"62.7310","RA_OF_ASC_NODE":"329.8353","ECCENTRICITY":"0.00017190","MEAN_MOTION":"15.06382850","FILE":"3275754","TIME_SYSTEM":"UTC","DECAY_DATE":null,"NORAD_CAT_ID":"47562","EPOCH":"2022-01-17T13:28:51.074400","OBJECT_TYPE":"PAYLOAD","SEMIMAJOR_AXIS":"6925.401","BSTAR":"-0.00038220000000","PERIAPSIS":"546.076"},{"ECCENTRICITY":"0.00016660","RA_OF_ASC_NODE":"328.5429","ARG_OF_PERICENTER":"65.3986","CENTER_NAME":"EARTH","TIME_SYSTEM":"UTC","FILE":"3276075","MEAN_MOTION":"15.06380666","EPOCH":"2022-01-17T20:22:51.979872","NORAD_CAT_ID":"47563","DECAY_DATE":null,"PERIAPSIS":"546.119","BSTAR":"-0.00020478000000","SEMIMAJOR_AXIS":"6925.408","OBJECT_TYPE":"PAYLOAD","TLE_LINE1":"1 47563U 21009R   22017.84921273 -.00003329  00000-0 -20478-3 0  9998","REV_AT_EPOCH":"5292","MEAN_ELEMENT_THEORY":"SGP4","LAUNCH_DATE":"2021-02-04","EPHEMERIS_TYPE":"0","OBJECT_ID":"2021-009R","MEAN_MOTION_DDOT":"0.0000000000000","MEAN_MOTION_DOT":"-0.00003329","SITE":"AFETR","PERIOD":"95.593","ELEMENT_SET_NO":"999","INCLINATION":"53.0543","TLE_LINE2":"2 47563  53.0543 328.5429 0001666  65.3986 294.7176 15.06380666 52921","GP_ID":"194088259","APOAPSIS":"548.427","MEAN_ANOMALY":"294.7176","RCS_SIZE":"LARGE","CLASSIFICATION_TYPE":"U","REF_FRAME":"TEME","OBJECT_NAME":"STARLINK-1962","COUNTRY_CODE":"US"},{"LAUNCH_DATE":"2021-02-04","EPHEMERIS_TYPE":"0","MEAN_ELEMENT_THEORY":"SGP4","OBJECT_ID":"2021-009S","MEAN_MOTION_DDOT":"0.0000000000000","MEAN_MOTION_DOT":"-0.00003266","REV_AT_EPOCH":"5297","TLE_LINE1":"1 47564U 21009S   22017.25300145 -.00003266  00000-0 -20052-3 0  9991","TLE_LINE2":"2 47564  53.0557 321.2170 0001491  67.4512 292.6635 15.06393092 52973","GP_ID":"194056156","SITE":"AFETR","ELEMENT_SET_NO":"999","PERIOD":"95.593","INCLINATION":"53.0557","RCS_SIZE":"LARGE","MEAN_ANOMALY":"292.6635","CLASSIFICATION_TYPE":"U","REF_FRAME":"TEME","APOAPSIS":"548.267","COUNTRY_CODE":"US","OBJECT_NAME":"STARLINK-1963","ECCENTRICITY":"0.00014910","RA_OF_ASC_NODE":"321.2170","ARG_OF_PERICENTER":"67.4512","CENTER_NAME":"EARTH","FILE":"3275754","MEAN_MOTION":"15.06393092","TIME_SYSTEM":"UTC","DECAY_DATE":null,"NORAD_CAT_ID":"47564","EPOCH":"2022-01-17T06:04:19.325280","BSTAR":"-0.00020052000000","SEMIMAJOR_AXIS":"6925.370","OBJECT_TYPE":"PAYLOAD","PERIAPSIS":"546.202"},{"NORAD_CAT_ID":"47565","EPOCH":"2022-01-17T05:59:00.639744","DECAY_DATE":null,"PERIAPSIS":"546.031","SEMIMAJOR_AXIS":"6925.391","OBJECT_TYPE":"PAYLOAD","BSTAR":"-0.00044304000000","ARG_OF_PERICENTER":"57.2724","RA_OF_ASC_NODE":"321.2314","CENTER_NAME":"EARTH","ECCENTRICITY":"0.00017690","TIME_SYSTEM":"UTC","MEAN_MOTION":"15.06386129","FILE":"3275754","APOAPSIS":"548.481","REF_FRAME":"TEME","MEAN_ANOMALY":"302.8435","RCS_SIZE":"LARGE","CLASSIFICATION_TYPE":"U","OBJECT_NAME":"STARLINK-1964","COUNTRY_CODE":"US","REV_AT_EPOCH":"5297","TLE_LINE1":"1 47565U 21009T   22017.24931296 -.00006872  00000-0 -44304-3 0  9990","MEAN_MOTION_DDOT":"0.0000000000000","MEAN_MOTION_DOT":"-0.00006872","MEAN_ELEMENT_THEORY":"SGP4","LAUNCH_DATE":"2021-02-04","EPHEMERIS_TYPE":"0","OBJECT_ID":"2021-009T","INCLINATION":"53.0563","PERIOD":"95.593","ELEMENT_SET_NO":"999","SITE":"AFETR","TLE_LINE2":"2 47565  53.0563 321.2314 0001769  57.2724 302.8435 15.06386129 52976","GP_ID":"194057407"},{"PERIAPSIS":"546.040","OBJECT_TYPE":"PAYLOAD","SEMIMAJOR_AXIS":"6925.419","BSTAR":"-0.00020117000000","NORAD_CAT_ID":"47566","EPOCH":"2022-01-17T12:11:54.743136","DECAY_DATE":null,"TIME_SYSTEM":"UTC","MEAN_MOTION":"15.06377172","FILE":"3275939","CENTER_NAME":"EARTH","ARG_OF_PERICENTER":"49.8388","RA_OF_ASC_NODE":"310.0623","ECCENTRICITY":"0.00017960","OBJECT_NAME":"STARLINK-1965","COUNTRY_CODE":"US","APOAPSIS":"548.527","REF_FRAME":"TEME","CLASSIFICATION_TYPE":"U","RCS_SIZE":"LARGE","MEAN_ANOMALY":"310.2758","ELEMENT_SET_NO":"999","PERIOD":"95.594","INCLINATION":"53.0563","SITE":"AFETR","GP_ID":"194063511","TLE_LINE2":"2 47566  53.0563 310.0623 0001796  49.8388 310.2758 15.06377172 53766","TLE_LINE1":"1 47566U 21009U   22017.50827249 -.00003275  00000-0 -20117-3 0  9992","REV_AT_EPOCH":"5376","MEAN_MOTION_DOT":"-0.00003275","MEAN_MOTION_DDOT":"0.0000000000000","OBJECT_ID":"2021-009U","EPHEMERIS_TYPE":"0","LAUNCH_DATE":"2021-02-04","MEAN_ELEMENT_THEORY":"SGP4"}];
